#cP2022  3 17  6  0  0.00000000     576 d+D   IGb14 EXT AIUB
## 2201 367200.00000000   300.00000000 59655 0.2500000000000
+   75   G01G02G03G04G05G06G07G08G09G10G11G12G13G14G15G16G17
+        G18G19G20G21G22G23G24G25G26G27G28G29G31G32R01R02R03
+        R04R05R07R08R09R12R13R14R15R17R18R19R20R21R22R24E01
+        E02E03E04E05E07E08E10E11E12E13E14E15E18E19E21E24E25
+        E26E27E30E31E33E34E36  0  0  0  0  0  0  0  0  0  0
++         6  7  7  8  7  7  7  7  5  6  8  7  9  7  7  7  7
++         8  7  7  7  7  7  7  6  6  6  7  7  7  7  8  7  8
++         7  7  8  7  6  6  8  7  6  8  7  8  9  8  8  8  6
++         6  6  6  6  6  7  9  6  7  6  8  5  6  7  6  7  6
++         7  6  6  5  7  6  7  0  0  0  0  0  0  0  0  0  0
%c M  cc GPS ccc cccc cccc cccc cccc ccccc ccccc ccccc ccccc
%c cc cc ccc ccc cccc cccc cccc cccc ccccc ccccc ccccc ccccc
%f  1.2500000  1.025000000  0.00000000000  0.000000000000000
%f  0.0000000  0.000000000  0.00000000000  0.000000000000000
%i    0    0    0    0      0      0      0      0         0
%i    0    0    0    0      0      0      0      0         0
/* Center for Orbit Determination in Europe (CODE)          
/* Ultra-rapid GRE orbits starting year-day 22076 06 hour   
/* Observed/predicted: 25/23 hours (data used up to 077G)   
/* PCV:IGS14      OL/AL:FES2014b NONE     YN ORB:CoN CLK:BRD
*  2022  3 17  9 35  0.00000000
PG01 -14819.848083    568.747289  21780.133822    406.915167
PG02  14749.556489  19524.301182  -9491.670534   -652.342251
PG03 -21022.798737  10003.241778  12576.184868   -167.277819
PG04 -24756.927644    420.060518  -9716.435171   -183.034735
PG05  15470.360108   4816.707429 -21231.965288    -74.972375
PG06   5003.350379  25739.021895   4026.053154    234.228178
PG07  -8082.514745  17319.480709 -17843.792935    316.420846
PG08 -26102.108272  -5853.263771   -578.925851    -60.176605
PG09 -17495.686181   9214.047185 -17814.063425   -349.296291
PG10   8476.131507 -21746.238334  12542.999226   -349.511656
PG11  12725.674065  20789.367237 -10571.485223    -61.449431
PG12  21064.988406  -5798.104716  14742.242603   -186.161969
PG13  21926.288975  13462.210143  -7083.429136    278.288698
PG14 -10121.817210  21618.221092  11560.961777    -94.643111
PG15  26562.307525   3036.516850   -481.802455    -76.144211
PG16 -11881.388145  -9627.908436 -22012.270049   -481.610893
PG17  -1579.780848  15089.252601  22230.148619    588.317472
PG18   8074.715648 -17391.896517 -18336.575956    217.887880
PG19   7004.756703  16330.848393  19542.344953    132.128355
PG20   9055.013706  13743.245208 -20885.287926    516.261287
PG21 -17635.270531  -9891.817616  18210.075675    159.485412
PG22  -9985.418792 -16745.414455  18524.771653    228.819338
PG23  16448.708988 -20697.544792   1929.014377     -7.514005
PG24  17089.979846   3364.027133  19858.651871    267.234849
PG25  19677.444514 -17040.848806   4173.325772    299.458923
PG26  -2344.066150 -18636.845476 -18745.546409    191.463880
PG27 -20787.576942 -12655.626916 -11305.549372    156.698068
PG28  -2962.434157  19543.042704  18366.441939    378.636632
PG29  19447.409004  -5966.342543 -17158.774292   -492.345000
PG31  -6323.593955 -25500.418538   1150.094379   -169.302772
PG32  -3099.135659 -15935.140457  21189.400028    -86.454858
PR01   8765.178219   8804.054868 -22274.438992      7.264164
PR02  23554.774790   -640.514486  -9643.518866    512.735677
PR03  22532.951211  -9030.517880   7793.708748     53.280607
PR04   9066.997179 -11971.637566  20647.901963    132.344184
PR05  -9439.348197  -8485.424252  22145.086231     89.539906
PR07 -22292.585300   9207.777257  -8330.887605     32.744774
PR08  -8956.849956  12071.307343 -20555.505486    -64.081081
PR09 -11314.114464  -1419.621919 -22801.448511     44.772613
PR12   3099.653331  18550.158321  17263.204860     17.487795
PR13  10716.154564   2603.121841  22979.795010    -19.575908
PR14  12455.373797 -16312.567650  15160.991792     75.473448
PR15   6737.285789 -24569.175607  -1249.538468     97.509405
PR17  11203.266810  -3061.631509 -22705.587428    510.217551
PR18  -2143.163771 -15655.390100 -20029.806554    110.561118
PR19 -13086.155849 -20433.275995  -7874.543727   -181.877599
PR20 -18310.651855 -12901.720036  12259.350286    -66.861469
PR21 -10131.241253   4257.833595  23018.367368   -285.963606
PR22   2697.280123  16029.318259  19606.621981   -171.158658
PR24  18694.525464  11799.332547 -12714.548586     84.756965
PE01  17302.511480 -24009.158374    -24.839770   -598.409945
PE02 -17235.064705  24079.284288    164.586770    286.795165
PE03 -15289.788522  13649.179408 -21351.797946   -538.251382
PE04  -6679.912925 -17103.431246  23225.896784   -986.355437
PE05 -28712.359811   2095.026993  -6879.698364   -199.592839
PE07  25237.240176  10495.962311 -11363.993914   -649.168514
PE08   7195.123863  16903.186300 -23207.680717   -496.554169
PE10 -14355.307524 -25678.325756   3290.063982   -500.991105
PE11 -18253.294110 -19350.656486  13000.731000   4208.476041
PE12  -8235.255385 -27718.745992  -6387.380368   4709.375473
PE13  18096.015782  19829.503650 -12448.252199    427.336809
PE14   4769.136638  16717.955313  17741.578427  -1781.158952
PE15   8201.930489  27667.469418   6569.111553    757.296227
PE18   4895.975774 -19548.864559 -24276.317843  -1674.283922
PE19  17677.378977 -12427.842765  20236.808310  -1455.923974
PE21  21857.863030 -11243.894940  16479.349877   -723.022354
PE24 -13357.709495 -10040.001950 -24449.651155   -509.970582
PE25 -21848.462912  11010.717523 -16668.253234   -567.090298
PE26  17093.798544   -714.412430 -24147.316107   -922.089458
PE27  14174.964873   8780.804423  24453.634391   -255.056030
PE30  -2777.332404  23914.176469  17220.676515   -355.339368
PE31   1769.281138 -23448.507273 -17970.499139   -493.657370
PE33   6462.016473 -19171.720935 -21605.734952   -458.483395
PE34  -6293.099246  19334.535060  21508.938446   -507.204900
PE36 -17300.505113   -413.074714  24022.644689   -346.473924
EOF
